OBJECT_NAME,OBJECT_ID,EPOCH,MEAN_MOTION,ECCENTRICITY,INCLINATION,RA_OF_ASC_NODE,ARG_OF_PERICENTER,MEAN_ANOMALY,EPHEMERIS_TYPE,CLASSIFICATION_TYPE,NORAD_CAT_ID,ELEMENT_SET_NO,REV_AT_EPOCH,BSTAR,MEAN_MOTION_DOT,MEAN_MOTION_DDOT
HST,1990-037B,2026-07-14T12:32:33.992160,15.31057008,.000222,28.4723,253.7049,97.0463,263.0385,0,U,20580,999,79276,.10789E-3,.3561E-4,0
POLAR,1996-013A,2026-07-14T18:22:21.811008,1.29846068,.6498087,79.8911,226.7248,208.1291,91.6735,0,U,23802,999,14521,0,.202E-5,0
SWAS,1998-071A,2026-07-14T09:07:23.898144,15.09744124,.00080012,69.8939,157.3858,231.4104,128.6344,0,U,25560,999,50137,.10646121E-3,.1617E-4,0
CXO,1999-040B,2026-07-17T11:15:10.202112,0.37805709,.7787022,56.6226,115.7943,310.0504,0.5333,0,U,25867,999,1743,0,.598E-5,0
XMM-NEWTON,1999-066A,2026-07-16T06:30:36.983232,0.50127411,.46657669,64.3306,282.6120,64.4091,0.1022,0,U,25989,999,2314,0,.2E-6,0
TERRA,1999-068A,2026-07-14T19:50:04.198272,14.61123539,.0003396,97.9442,244.2747,123.3921,325.4297,0,U,25994,999,41364,.4811E-4,.192E-5,0
CLUSTER II-FM7 (SAMBA),2000-041A,2026-07-11T16:19:30.897408,0.44896530,.90823116,149.8437,55.3938,272.8334,359.6328,0,U,26410,999,2042,0,.12833E-3,0
CLUSTER II-FM8 (TANGO),2000-045B,2026-07-12T04:49:18.415776,0.44428696,.90878293,150.0466,56.7498,274.0539,2.1034,0,U,26464,999,2042,0,.13276E-3,0
ODIN,2001-007A,2026-07-14T16:14:22.515072,15.89212959,.0005106,97.3731,238.6206,151.7474,208.4076,0,U,26702,999,39374,.92871E-3,.265052E-2,.27453E-4
TIMED,2001-055B,2026-07-14T08:55:25.953888,14.95343591,.000222,74.0665,180.2799,301.5234,58.5733,0,U,26998,999,33488,.5372086E-4,.553E-5,0
CORIOLIS,2003-001A,2026-07-14T14:35:33.348768,14.19951709,.0014891,98.7134,202.0746,130.7544,229.4927,0,U,27640,999,21811,.41076E-4,.44E-6,0
SORCE,2003-004A,2026-07-13T04:08:34.366272,15.03836025,.00185763,39.9908,113.4042,240.8928,119.0006,0,U,27651,999,27581,.11990288E-3,.1531E-4,0
MOST,2003-031D,2026-07-14T14:17:38.564736,14.21327619,.0010051,98.7053,202.9395,166.7190,193.4254,0,U,27843,999,19460,.2746E-4,.16E-6,0
SCISAT 1,2003-036A,2026-07-14T20:16:45.599808,14.81478773,.000739,73.9301,116.3908,184.5890,175.5220,0,U,27858,999,23554,.40297E-4,.279E-5,0
SWIFT,2004-047A,2026-07-14T12:19:14.038752,15.71113940,.0002053,20.5530,333.6864,17.5678,342.4839,0,U,28485,999,19116,.31959454E-3,.4333E-3,0
HINODE (SOLAR-B),2006-041A,2026-07-14T15:24:46.429056,14.68657839,.0016984,98.0548,211.3900,196.2368,163.8296,0,U,29479,999,5890,.5994E-4,.3E-5,0
SHIJIAN-6 02A (SJ-6 02A),2006-046A,2026-07-14T20:37:41.448000,15.17240836,.0004291,97.6348,237.1364,63.2395,296.9276,0,U,29505,999,7646,.11061E-3,.2131E-4,0
SHIJIAN-6 02B (SJ-6 02B),2006-046B,2026-07-14T20:54:09.239328,15.01436880,.0013445,97.7147,224.7579,337.5339,22.5295,0,U,29506,999,7489,.37045E-4,.418E-5,0
FGRST (GLAST),2008-029A,2026-07-13T21:03:05.812704,15.24072309,.00077493,25.5829,19.1417,283.0885,76.8788,0,U,33053,999,99991,.73017179E-4,.2161E-4,0
SDO,2010-005A,2026-07-14T06:42:26.599392,1.00277077,.00019596,34.7062,85.9305,51.0470,153.5206,0,U,36395,999,6033,0,-.106E-5,0
CRYOSAT 2,2010-013A,2026-07-14T20:33:08.036928,14.51898322,.0002386,92.0359,284.0282,98.4675,261.6803,0,U,36508,999,86209,.31263E-4,.129E-5,0
X-SAT,2011-015C,2026-07-14T21:16:22.132992,14.25213741,.0012725,98.3520,171.5926,261.8281,98.1456,0,U,37389,999,79162,.40502E-5,-.32E-6,0
GCOM-W1 (SHIZUKU),2012-025A,2026-07-14T20:15:28.728000,14.57090026,.000132,98.2023,135.9816,77.8838,345.1222,0,U,38337,999,75306,.55083E-4,.203E-5,0
NUSTAR,2012-031A,2026-07-14T22:00:03.000096,15.09041827,.0007399,6.0247,186.1028,170.0944,121.2487,0,U,38358,999,130,.38932E-4,.1489E-4,0
NEOSSAT,2013-009D,2026-07-14T10:57:53.688096,14.35835508,.00114122,98.4189,14.8427,159.3934,200.7715,0,U,39089,999,70065,.3491549E-4,.58E-6,0
BRITE-AUSTRIA,2013-009F,2026-07-14T10:36:21.813696,14.36552341,.00107224,98.4007,14.2048,152.8336,207.3414,0,U,39091,999,70096,.42362008E-4,.82E-6,0
IRIS,2013-033A,2026-07-14T12:07:02.833824,14.85936126,.00232806,97.9319,34.6959,227.3924,132.5328,0,U,39197,999,70443,.64464903E-4,.509E-5,0
HISAKI (SPRINT-A),2013-049A,2026-07-14T09:04:58.470528,13.55546668,.01369524,29.7209,81.7649,237.2707,121.4597,0,U,39253,999,63511,.18458439E-4,.81E-6,0
CASSIOPE,2013-055A,2026-07-14T19:47:39.885216,15.27405170,.0282907,80.9127,33.0918,329.1394,29.3464,0,U,39265,999,67188,.22074E-3,.20591E-3,-.53295E-6
STSAT-3,2013-066G,2026-07-14T21:04:04.869696,15.02884066,.0008941,97.6187,165.3190,306.6131,53.4271,0,U,39422,999,68836,.10006E-3,.1282E-4,0
SWARM B,2013-067A,2026-07-14T19:47:47.548896,15.28715472,.000231,87.7459,333.9208,82.4270,277.7241,0,U,39451,999,68746,.69713E-4,.1981E-4,0
